YUBILEINY (RS30)        
1 32953U 08025A   26032.89490532  .00000077  00000+0  48067-3 0  9991
2 32953  82.5004  79.6034 0018412 244.8579 115.0591 12.43174499802889
FENGYUN 3A              
1 32958U 08026A   26032.85832073  .00000105  00000+0  70130-4 0  9992
2 32958  98.6756 336.3248 0009115 151.4597 208.7080 14.19534456916202
HUANJING 1A (HJ-1A)     
1 33320U 08041A   26032.95810831  .00001167  00000+0  14736-3 0  9990
2 33320  97.6580  24.1374 0017935 219.3325 140.6588 14.83595740938355
HUANJING 1B (HJ-1B)     
1 33321U 08041B   26032.93681565  .00001614  00000+0  20289-3 0  9996
2 33321  97.6431  27.6777 0034998 267.5041  92.2166 14.83002146938362
SHIJIAN-6 03A (SJ-6 03A)
1 33408U 08053A   26032.97487367  .00003378  00000+0  18172-3 0  9990
2 33408  97.8572  61.6324 0013168 114.2457 246.0152 15.15524677942472
SHIJIAN-6 03B (SJ-6 03B)
1 33409U 08053B   26032.97830806  .00002998  00000+0  22290-3 0  9994
2 33409  97.8679  50.6151 0020770 133.9716 226.3226 15.03619151942427
CHUANGXIN 1-02 (CX-1-02)
1 33434U 08056B   26032.98865243 -.00000057  00000+0 -50621-5 0  9996
2 33434  98.6286  60.5119 0014371 173.2085 186.9294 14.30120258899294
STARS (KUKAI)           
1 33498U 09002G   26032.83707674  .00004830  00000+0  45243-3 0  9998
2 33498  98.1426 334.8533 0006923 254.7873 105.2581 14.94533175918253
KKS-1 (KISEKI)          
1 33499U 09002H   26032.90131534  .00001716  00000+0  21964-3 0  9997
2 33499  98.1193 313.2562 0008426  19.1319 341.0209 14.82677260916140
NOAA 19                 
1 33591U 09005A   26032.91662153  .00000066  00000+0  59184-4 0  9993
2 33591  98.9681 103.6144 0014489  56.0701 304.1847 14.13449476875378
UK-DMC 2                
1 35683U 09041C   26032.97285183  .00001071  00000+0  16365-3 0  9997
2 35683  97.8594 171.4461 0001395  74.3841 285.7523 14.75763556886629
METEOR-M 1              
1 35865U 09049A   26032.87529545  .00000112  00000+0  69261-4 0  9998
2 35865  98.7208 356.4546 0002210   9.8065 350.3156 14.23117838850003
OCEANSAT-2              
1 35931U 09051A   26032.94699146 -.00000130  00000+0 -62845-4 0  9991
2 35931  98.2262  33.3623 0015516 258.8505 101.0917 13.99642116860413
SWISSCUBE               
1 35932U 09051B   26032.68844085  .00001296  00000+0  26747-3 0  9999
2 35932  98.4135 298.1874 0005552 278.0146  82.0424 14.62149582869351
BEESAT-1                
1 35933U 09051C   26032.69797289  .00001223  00000+0  25682-3 0  9991
2 35933  98.4062 298.1092 0004205 296.8487  63.2283 14.61439428869391
ITUPSAT1                
1 35935U 09051E   26032.70818776  .00001118  00000+0  24215-3 0  9994
2 35935  98.4150 297.4497 0006522 306.0866  53.9729 14.60181771868968
